24793,IRIDIUM 7,1997,100.29,-1.0,-,86.4,Inactive,0,LEO,USA,USA,Unknown,Unknown,Unknown,1 24793U 97020B   25083.36871592  .00001457  00000+0  49679-3 0  9996,2 24793  86.4002 212.4065 0002232  87.7550 272.3902 14.35841268459722,14.35841268,0.0002232,LEO
24795,IRIDIUM 5,1997,96.44,-1.0,-,86.39,Inactive,0,LEO,USA,USA,Unknown,Unknown,Unknown,1 24795U 97020D   25083.51011334  .00011453  00000+0  96085-3 0  9995,2 24795  86.3876 122.7686 0113878  82.5393 278.8757 14.93248887472828,14.93248887,0.0113878,LEO
24796,IRIDIUM 4,1997,100.23,-1.0,-,86.4,Inactive,0,LEO,USA,USA,Unknown,Unknown,Unknown,1 24796U 97020E   25083.61448268  .00001427  00000+0  47742-3 0  9993,2 24796  86.4003 209.2388 0002221  94.0696 266.0755 14.36750521460324,14.36750521,0.0002221,LEO
24836,IRIDIUM 914,1997,99.95,-1.0,-,86.4,Inactive,0,LEO,Kazakhstan,USA,Unknown,Unknown,Unknown,1 24836U 97030A   25083.64497447  .00001826  00000+0  56514-3 0  9995,2 24836  86.3965 218.0783 0003453 113.2327 246.9236 14.40753762594958,14.40753762,0.0003453,LEO
24841,IRIDIUM 16,1997,100.1,-1.0,-,86.4,Inactive,0,LEO,Kazakhstan,USA,Unknown,Unknown,Unknown,1 24841U 97030F   25083.47825502  .00001657  00000+0  53531-3 0  9997,2 24841  86.4007 240.8412 0002546  35.0826 325.0539 14.38597483454820,14.38597483,0.0002546,LEO
24842,IRIDIUM 911,1997,99.48,-1.0,-,86.44,Inactive,0,LEO,Kazakhstan,USA,Unknown,Unknown,Unknown,1 24842U 97030G   25083.50755151  .00002285  00000+0  61609-3 0  9997,2 24842  86.4432 239.6867 0014984  28.1040 332.0969 14.47481238462838,14.47481238,0.0014984,LEO
24870,IRIDIUM 17,1997,100.16,-1.0,-,86.39,Inactive,0,LEO,USA,USA,Unknown,Unknown,Unknown,1 24870U 97034B   25083.48269885  .00001477  00000+0  48502-3 0  9992,2 24870  86.3896 270.3858 0000866  41.8317 318.2947 14.37705898451411,14.37705898,8.66e-05,LEO
24871,IRIDIUM 920,1997,99.9,-1.0,-,86.39,Inactive,0,LEO,USA,USA,Unknown,Unknown,Unknown,1 24871U 97034C   25083.39602760  .00001558  00000+0  47459-3 0  9996,2 24871  86.3932 249.8230 0011766  12.1861 347.9621 14.41412499454366,14.41412499,0.0011766,LEO
